SES-12                  
1 43488U 18049A   24153.55118972 -.00000266  00000+0  00000+0 0  9995
2 43488   0.0363  60.5861 0000674 229.7009 253.6571  1.00268255 21947
FENGYUN 2H              
1 43491U 18050A   24153.56989867 -.00000126  00000+0  00000+0 0  9996
2 43491   1.1032  87.3936 0001503  31.2066  56.4479  1.00270065 21967
BEIDOU-2 IGSO-7         
1 43539U 18057A   24153.45951704 -.00000047  00000+0  00000+0 0  9995
2 43539  55.1402 169.5051 0075421 233.4735 124.5009  1.00257305 21654
TELSTAR 19V             
1 43562U 18059A   24151.75262705 -.00000276  00000+0  00000+0 0  9994
2 43562   0.0390 153.3820 0002557 312.2926 351.0150  1.00269939 21670
TELKOM 4 (MERAH PUTIH)  
1 43587U 18064A   24153.63324816 -.00000341  00000+0  00000+0 0  9991
2 43587   0.0187 305.0999 0001167 130.0052 151.4727  1.00271089 21408
TELSTAR 18V             
1 43611U 18069A   24152.29356625 -.00000291  00000+0  00000+0 0  9992
2 43611   0.0175 351.5760 0002142  81.8194  59.5603  1.00269141 21147
AZERSPACE 2 (IS-38)     
1 43632U 18074A   24152.56091187  .00000140  00000+0  00000+0 0  9992
2 43632   0.0163 337.4876 0001405  85.6475  73.4382  1.00272028 20969
HORIZONS-3E             
1 43633U 18074B   24152.85743625 -.00000027  00000+0  00000+0 0  9991
2 43633   0.0411 188.4393 0000414  88.9168  90.1808  1.00270358 20859
AEHF-4 (USA 288)        
1 43651U 18079A   24153.54074609 -.00000273  00000+0  00000+0 0  9995
2 43651   1.6892 332.5727 0048764  12.3185  32.6441  1.00276450 20822
BEIDOU-3 G1             
1 43683U 18085A   24153.58194699 -.00000274  00000+0  00000+0 0  9994
2 43683   2.1540 110.1767 0004203 352.3214 137.5219  1.00266914 20582
GSAT-29                 
1 43698U 18089A   24153.50882663  .00000089  00000+0  00000+0 0  9994
2 43698   0.0250 263.5703 0002330 167.5699  57.5300  1.00268878 20312
ES'HAIL 2               
1 43700U 18090A   24152.77208957  .00000147  00000+0  00000+0 0  9991
2 43700   0.0186 307.2338 0001677 156.3044  89.9760  1.00269291 20192
GEO-KOMPSAT-2A          
1 43823U 18100A   24153.59563448 -.00000340  00000+0  00000+0 0  9995
2 43823   0.0235  92.7587 0001694 341.9264 158.5643  1.00270297 20157
GSAT-11                 
1 43824U 18100B   24153.56885440 -.00000073  00000+0  00000+0 0  9995
2 43824   0.0551 262.1391 0007710 177.7618  89.4220  1.00270976 20009
GSAT-7A                 
1 43864U 18105A   24153.56659182  .00000030  00000+0  00000+0 0  9998
2 43864   0.0301 250.1913 0002394 166.0942 100.9848  1.00270438 19980
COSMOS 2533             
1 43867U 18107A   24153.49645487 -.00000035  00000+0  00000+0 0  9994
2 43867   0.0442 110.8946 0000336 149.0145 239.2798  1.00273051 19958
TJS-3                   
1 43874U 18110A   24153.58853789  .00000005  00000+0  00000+0 0  9998
2 43874   0.6146  88.9550 0001413  44.2245 142.1898  1.00270038 19947
CHINASAT 2D (ZX 2D)     
1 43920U 19001A   24153.60118888 -.00000333  00000+0  00000+0 0  9992
2 43920   0.0541 120.7774 0001735 121.3679 354.8674  1.00270191 46607
HELLAS-SAT 4 & SGS-1    
1 44034U 19007A   24152.51507459  .00000156  00000+0  00000+0 0  9992
2 44034   0.0708 123.6866 0005174  10.4742 339.7423  1.00270542 19876
GSAT-31                 
1 44035U 19007B   24153.49210375  .00000128  00000+0  00000+0 0  9998
2 44035   0.0134 300.6916 0001454  18.9264 155.8877  1.00273165 19494
NUSANTARA SATU          
1 44048U 19009A   24152.78452157 -.00000232  00000+0  00000+0 0  9998
2 44048   0.0123  94.9801 0003947  15.2357 207.9772  1.00268428 19280
CHINASAT 6C (ZX 6C)     
1 44067U 19012A   24153.60118888 -.00000332  00000+0  00000+0 0  9996
2 44067   0.0971  99.3741 0002968 309.7356 188.3027  1.00271298 19268
WGS 10 (USA 291)        
1 44071U 19014A   24152.56447205  .00000050  00000+0  00000+0 0  9991
2 44071   0.0128 347.5972 0000282 335.9888 189.4555  1.00269754 19148
TIANLIAN 2-01           
1 44076U 19017A   24153.56902845 -.00000103  00000+0  00000+0 0  9996
2 44076   0.1528 268.4258 0003092 140.6304 123.3565  1.00272159 19176
ARABSAT-6A              
1 44186U 19021A   24153.56015214  .00000157  00000+0  00000+0 0  9996
2 44186   0.0500 340.2036 0002226 127.8470  14.6264  1.00269192 18685
BEIDOU-3 IGSO-1         
1 44204U 19023A   24152.64771215 -.00000240  00000+0  00000+0 0  9991
2 44204  57.6180  45.3963 0018749 210.2901 343.8521  1.00253856 18855
BEIDOU-2 G8             
1 44231U 19027A   24153.59008028 -.00000244  00000+0  00000+0 0  9999
2 44231   1.9109  73.8356 0002617 154.5246  19.1533  1.00269048 18608
YAMAL 601               
1 44307U 19031A   24153.56389411  .00000123  00000+0  00000+0 0  9998
2 44307   0.0158 345.7682 0002188  95.9302  60.8332  1.00272100 18448
AT&T T-16               
1 44333U 19034A   24152.72233385 -.00000112  00000+0  00000+0 0  9994
2 44333   0.0197 307.0794 0001116   3.5685  98.2356  1.00273132 18148
EUTELSAT 7C             
1 44334U 19034B   24153.10882604  .00000052  00000+0  00000+0 0  9994
2 44334   0.0770 185.9896 0003290 227.0746 243.2084  1.00271499 18636
BEIDOU-3 IGSO-2         
1 44337U 19035A   24153.45908674 -.00000050  00000+0  00000+0 0  9991
2 44337  55.1766 165.4057 0033323 209.7912 155.8195  1.00245477 18198
COSMOS 2539             
1 44457U 19048A   24152.69793618  .00000085  00000+0  00000+0 0  9990
2 44457   0.0423 126.9657 0000710 127.6533 258.3066  1.00273453 17740
EDRS-C                  
1 44475U 19049A   24153.21839217  .00000158  00000+0  00000+0 0  9997
2 44475   0.0765 255.8234 0000808 150.8913 313.2955  1.00268995 17732
INTELSAT 39 (IS-39)     
1 44476U 19049B   24151.41955748  .00000037  00000+0  00000+0 0  9992
2 44476   0.0179 334.0395 0000172 359.1888 128.1662  1.00269653 17649
AMOS-17                 
1 44479U 19050A   24152.04980047  .00000112  00000+0  00000+0 0  9991
2 44479   0.0361  91.6910 0001636  11.5902 180.6695  1.00271253 17699
AEHF-5 (USA 292)        
1 44481U 19051A   24153.56493838  .00000084  00000+0  00000+0 0  9998
2 44481   2.7453 307.6261 0045430   3.9957 196.9129  1.00276251 17782
EUTELSAT 5 WEST B       
1 44624U 19067A   24153.55301628 -.00000039  00000+0  00000+0 0  9999
2 44624   0.0636   0.0363 0002896  69.7191  14.8565  1.00271234 16979
MEV-1                   
1 44625U 19067B   24152.30952167 -.00000198  00000+0  00000+0 0  9998
2 44625   0.0388 128.5680 0000828 279.1125 285.5698  1.00270435 84093
TJS-4                   
1 44637U 19070A   24153.55674410 -.00000167  00000+0  00000+0 0  9991
2 44637   0.0573 261.7877 0004500 123.8719 148.8674  1.00270006 17067
BEIDOU-3 IGSO-3         
1 44709U 19073A   24152.78291946 -.00000214  00000+0  00000+0 0  9990
2 44709  56.0793 288.8986 0038493 180.9618 178.9701  1.00254516 16975
TIBA-1                  
1 44800U 19080A   24153.34215875  .00000159  00000+0  00000+0 0  9997
2 44800   0.0530 358.8330 0001974  85.6512 324.4974  1.00269273 16576
INMARSAT GX5            
1 44801U 19080B   24153.55632316  .00000078  00000+0  00000+0 0  9994
2 44801   0.0519  39.3168 0001980  45.8587  16.6169  1.00271182 16636
JCSAT-18 (KACIFIC 1)    
1 44868U 19091A   24152.78452157 -.00000198  00000+0  00000+0 0  9990
2 44868   0.0263 194.1554 0000303  40.2265  87.8009  1.00270692 16520
ELEKTRO-L 3             
1 44903U 19095A   24153.56920250 -.00000094  00000+0  00000+0 0  9990
2 44903   0.0787 226.4288 0000703 197.4636 107.5854  1.00273388 16225
SHIJIAN-20 (SJ-20)      
1 44910U 19097A   24153.63079635 -.00000064  00000+0  00000+0 0  9997
2 44910   3.0025  84.1015 0003307 356.3402 110.2085  1.00272553 16228
TJS-5                   
1 44978U 20002A   24149.25049350 -.00000335  00000+0  00000+0 0  9994
2 44978   0.5376  85.4992 0002284 201.1522 157.3595  1.00269791 16176
GSAT-30                 
1 45026U 20005A   24148.71638007 -.00000156  00000+0  00000+0 0  9996
2 45026   0.0811  96.9029 0003823 348.9792 140.7784  1.00271747 15985
EUTELSAT KONNECT        
1 45027U 20005B   24153.10882604  .00000053  00000+0  00000+0 0  9995
2 45027   0.0638  96.7357 0000427  92.6373 107.0980  1.00271796 16844
JCSAT-17                
1 45245U 20013A   24153.36650978 -.00000321  00000+0  00000+0 0  9990
2 45245   5.5996 349.8232 0002865  89.1669  79.2875  1.00270285 15758
GEO-KOMPSAT-2B          
1 45246U 20013B   24152.60260900 -.00000341  00000+0  00000+0 0  9991
2 45246   0.0251 223.7442 0000242 120.6434 250.3784  1.00272867 15797
BEIDOU-3 G2             
1 45344U 20017A   24153.57007272 -.00000139  00000+0  00000+0 0  9997
2 45344   2.2976  29.0386 0001074  93.2446  53.4968  1.00272227 15785
AEHF-6 (USA 298)        
1 45465U 20022B   24153.36677084 -.00000299  00000+0  00000+0 0  9995
2 45465   4.2608 298.6202 0042687   8.6161 212.8533  1.00267403 15535
BEIDOU-3 G3             
1 45807U 20040A   24153.62588899 -.00000350  00000+0  00000+0 0  9997
2 45807   0.7525  40.3578 0004593 289.2356 256.7728  1.00264942 14592
APSTAR-6D               
1 45863U 20045A   24153.60118888 -.00000314  00000+0  00000+0 0  9999
2 45863   0.0644  92.5513 0002437  10.4539 137.9795  1.00271490 14386
KOREASAT 116            
1 45920U 20048A   24153.08452178 -.00000359  00000+0  00000+0 0  9990
2 45920   0.0146 300.6149 0001088 171.9179 284.1082  1.00266620 14157
EXPRESS 103             
1 45985U 20053A   24153.35859073 -.00000277  00000+0  00000+0 0  9991
2 45985   0.0170 311.5562 0000354 138.4815  25.8925  1.00272003 14175
EXPRESS 80              
1 45986U 20053B   24153.08317241 -.00000133  00000+0  00000+0 0  9999
2 45986   0.0069  47.6742 0002621 134.3279 178.0000  1.00272331 14155
BSAT-4B                 
1 46112U 20056A   24152.68822753 -.00000347  00000+0  00000+0 0  9995
2 46112   0.0793 115.5274 0003721 354.3926 137.3568  1.00270984 13902
MEV-2                   
1 46113U 20056B   24152.40902182 -.00000008  00000+0  00000+0 0  9995
2 46113   0.0168 354.8540 0001018  49.1188 351.6702  1.00268534 73140
